STARLINK-36980          
1 68146U 26049E   26078.57630927 -.00620452  13836-3 -10788-2 0  9999
2 68146  97.2792  98.1417 0000469  81.7263 278.4070 16.02210843   969
STARLINK-37055          
1 68147U 26049F   26078.51507610 -.00358165  49580-4 -62842-3 0  9990
2 68147  97.2798  98.0710 0002763  38.6438 321.5038 16.02010555   956
STARLINK-36981          
1 68148U 26049G   26078.51312866 -.04741621  76603-2 -87998-2 0  9997
2 68148  97.2791  98.0740 0009222 123.9534 236.2623 16.00484791   952
STARLINK-36992          
1 68149U 26049H   26078.51297425  .00562120  14895-3  90936-3 0  9993
2 68149  97.2794  98.0748 0005892  16.2793 343.8675 16.03449672   958
STARLINK-37060          
1 68150U 26049J   26078.51268954  .00514433  12358-3  83559-3 0  9999
2 68150  97.2790  98.0753 0003860 339.2818  20.8305 16.03397341   958
STARLINK-37073          
1 68151U 26049K   26078.51234559 -.00494902  91744-4 -81365-3 0  9994
2 68151  97.2790  98.0750 0000583 352.5845   7.5426 16.03149567   954
STARLINK-37049          
1 68152U 26049L   26078.01278527 -.00417006  68149-4 -61657-3 0  9998
2 68152  97.2794  97.5302 0000474  89.6838 270.4498 16.04917116   870
STARLINK-37072          
1 68153U 26049M   26078.51169095 -.00162025  12479-4 -25962-3 0  9995
2 68153  97.2788  98.0760 0002614  12.6003 347.5342 16.03506250   951
STARLINK-36241          
1 68154U 26049N   26078.51098387 -.00136495  95698-5 -21485-3 0  9994
2 68154  97.2787  98.0764 0002702  13.1240 347.0110 16.03790974   958
STARLINK-37048          
1 68155U 26049P   26078.32317889  .00101037  66606-5  15061-3 0  9997
2 68155  97.2786  97.8732 0002251 149.8692 210.2719 16.04907380   922
STARLINK-36313          
1 68156U 26049Q   26078.51069617 -.00172305  13864-4 -26937-3 0  9991
2 68156  97.2787  98.0771 0002314   1.4479 358.6808 16.03927223   952
STARLINK-37064          
1 68157U 26049R   26078.51127920 -.00144348  10411-4 -22898-3 0  9997
2 68157  97.2784  98.0764 0002238 357.8304   2.2966 16.03667729   951
STARLINK-37069          
1 68158U 26049S   26078.50941725  .01093981  68408-3  14785-2 0  9992
2 68158  97.2784  98.0788 0001368   7.2640 352.8662 16.06600253   959
STARLINK-37053          
1 68159U 26049T   26078.32241881  .00065181  41103-5  95454-4 0  9998
2 68159  97.2784  97.8738 0002531 141.0873 219.0591 16.05261971   921
STARLINK-36306          
1 68160U 26049U   26078.50927702 -.00201573  18201-4 -30344-3 0  9990
2 68160  97.2782  98.0789 0002364  13.0399 347.0943 16.04569636   959
STARLINK-37057          
1 68161U 26049V   26078.32292760  .00112551  77340-5  16636-3 0  9993
2 68161  97.2783  97.8730 0002320 150.0328 210.1087 16.05035055   920
